FLOCK 4G-21             
1 62651U 25009AU  26068.19487675  .00013648  00000+0  49619-3 0  9998
2 62651  97.4032 151.1274 0000465 329.5782  30.5431 15.28381075 63677
STARLINK-33813          
1 63585U 25076S   26068.08993266  .00052044  00000+0  18868-2 0  9999
2 63585  43.0040 324.6511 0002317 266.7062  93.3524 15.27589924 51749
